ONEWEB-0290             
1 49080U 21075F   25211.13316195  .00000089  00000+0  19566-3 0  9992
2 49080  87.9032  69.9450 0001855  62.4263 297.7056 13.17650573192182
ONEWEB-0291             
1 49081U 21075G   25211.11798622  .00000005  00000+0 -21431-4 0  9994
2 49081  87.9039  69.9500 0001347  81.8330 278.2954 13.17650204192184
ONEWEB-0293             
1 49082U 21075H   25210.83954901  .00000050  00000+0  95634-4 0  9992
2 49082  87.9033  70.0393 0001697  78.4744 281.6578 13.17647740191181
ONEWEB-0294             
1 49083U 21075J   25211.07492408  .00000031  00000+0  49786-4 0  9995
2 49083  87.8853  54.6902 0001519  69.5741 290.5551 13.12443978193315
ONEWEB-0295             
1 49084U 21075K   25210.83870630  .00000004  00000+0 -22940-4 0  9990
2 49084  87.9044  70.0391 0001375  84.6695 275.4593 13.17649013191149
ONEWEB-0296             
1 49085U 21075L   25211.13168916 -.00000416  00000+0 -11923-2 0  9997
2 49085  87.8849  54.6869 0001248  82.9466 277.1805 13.12442309193327
ONEWEB-0297             
1 49086U 21075M   25211.08628193  .00000323  00000+0  86112-3 0  9998
2 49086  87.8853  54.7336 0001704  88.3960 271.7363 13.12442615193924
ONEWEB-0298             
1 49087U 21075N   25210.84306211  .00000047  00000+0  86851-4 0  9990
2 49087  87.9035  70.0367 0001746  88.1559 271.9772 13.17649555191179
ONEWEB-0299             
1 49088U 21075P   25210.84460980  .00000083  00000+0  17991-3 0  9993
2 49088  87.9040  69.9885 0001693  89.8949 270.2377 13.17650125191156
ONEWEB-0300             
1 49089U 21075Q   25211.07817076  .00000101  00000+0  24648-3 0  9990
2 49089  87.8850  54.6877 0002047  91.3392 268.7971 13.12443226193949
ONEWEB-0301             
1 49090U 21075R   25211.06194757 -.00000364  00000+0 -10480-2 0  9996
2 49090  87.8848  54.6966 0002159  92.1842 267.9534 13.12443394193302
ONEWEB-0302             
1 49091U 21075S   25210.82026814 -.00000381  00000+0 -10957-2 0  9996
2 49091  87.8852  54.7474 0001501  76.0709 284.0586 13.12440284192262
ONEWEB-0304             
1 49092U 21075T   25211.12303957  .00000144  00000+0  33799-3 0  9992
2 49092  87.9038  69.9652 0001554  85.5993 274.5316 13.17649597192149
ONEWEB-0305             
1 49093U 21075U   25211.11628078 -.00000158  00000+0 -44016-3 0  9997
2 49093  87.9032  69.9431 0001437  93.4931 266.6365 13.17648397192164
ONEWEB-0308             
1 49094U 21075V   25211.11872086 -.00000188  00000+0 -55725-3 0  9990
2 49094  87.8849  54.6814 0001777  85.4900 274.6431 13.12442381193333
ONEWEB-0309             
1 49095U 21075W   25211.11965665 -.00000020  00000+0 -84375-4 0  9996
2 49095  87.9035  69.9598 0001540  68.4846 291.6450 13.17650713192152
ONEWEB-0310             
1 49096U 21075X   25211.13331655 -.00000501  00000+0 -14293-2 0  9999
2 49096  87.8854  54.7239 0001688  82.9775 277.1545 13.12442958193947
