[{"OBJECT_NAME":"ONEWEB-0290","OBJECT_ID":"2021-075F","EPOCH":"2025-07-30T03:11:45.192480","MEAN_MOTION":13.17650573,"ECCENTRICITY":0.0001855,"INCLINATION":87.9032,"RA_OF_ASC_NODE":69.945,"ARG_OF_PERICENTER":62.4263,"MEAN_ANOMALY":297.7056,"EPHEMERIS_TYPE":0,"CLASSIFICATION_TYPE":"U","NORAD_CAT_ID":49080,"ELEMENT_SET_NO":999,"REV_AT_EPOCH":19218,"BSTAR":0.00019566,"MEAN_MOTION_DOT":8.9e-7,"MEAN_MOTION_DDOT":0},{"OBJECT_NAME":"ONEWEB-0291","OBJECT_ID":"2021-075G","EPOCH":"2025-07-30T02:49:54.009408","MEAN_MOTION":13.17650204,"ECCENTRICITY":0.0001347,"INCLINATION":87.9039,"RA_OF_ASC_NODE":69.95,"ARG_OF_PERICENTER":81.833,"MEAN_ANOMALY":278.2954,"EPHEMERIS_TYPE":0,"CLASSIFICATION_TYPE":"U","NORAD_CAT_ID":49081,"ELEMENT_SET_NO":999,"REV_AT_EPOCH":19218,"BSTAR":-2.1431e-5,"MEAN_MOTION_DOT":5.0e-8,"MEAN_MOTION_DDOT":0},{"OBJECT_NAME":"ONEWEB-0293","OBJECT_ID":"2021-075H","EPOCH":"2025-07-29T20:08:57.034464","MEAN_MOTION":13.1764774,"ECCENTRICITY":0.0001697,"INCLINATION":87.9033,"RA_OF_ASC_NODE":70.0393,"ARG_OF_PERICENTER":78.4744,"MEAN_ANOMALY":281.6578,"EPHEMERIS_TYPE":0,"CLASSIFICATION_TYPE":"U","NORAD_CAT_ID":49082,"ELEMENT_SET_NO":999,"REV_AT_EPOCH":19118,"BSTAR":9.5634e-5,"MEAN_MOTION_DOT":5.0e-7,"MEAN_MOTION_DDOT":0},{"OBJECT_NAME":"ONEWEB-0294","OBJECT_ID":"2021-075J","EPOCH":"2025-07-30T01:47:53.440512","MEAN_MOTION":13.12443978,"ECCENTRICITY":0.0001519,"INCLINATION":87.8853,"RA_OF_ASC_NODE":54.6902,"ARG_OF_PERICENTER":69.5741,"MEAN_ANOMALY":290.5551,"EPHEMERIS_TYPE":0,"CLASSIFICATION_TYPE":"U","NORAD_CAT_ID":49083,"ELEMENT_SET_NO":999,"REV_AT_EPOCH":19331,"BSTAR":4.9786e-5,"MEAN_MOTION_DOT":3.1e-7,"MEAN_MOTION_DDOT":0},{"OBJECT_NAME":"ONEWEB-0295","OBJECT_ID":"2021-075K","EPOCH":"2025-07-29T20:07:44.224320","MEAN_MOTION":13.17649013,"ECCENTRICITY":0.0001375,"INCLINATION":87.9044,"RA_OF_ASC_NODE":70.0391,"ARG_OF_PERICENTER":84.6695,"MEAN_ANOMALY":275.4593,"EPHEMERIS_TYPE":0,"CLASSIFICATION_TYPE":"U","NORAD_CAT_ID":49084,"ELEMENT_SET_NO":999,"REV_AT_EPOCH":19114,"BSTAR":-2.294e-5,"MEAN_MOTION_DOT":4.0e-8,"MEAN_MOTION_DDOT":0},{"OBJECT_NAME":"ONEWEB-0296","OBJECT_ID":"2021-075L","EPOCH":"2025-07-30T03:09:37.943424","MEAN_MOTION":13.12442309,"ECCENTRICITY":0.0001248,"INCLINATION":87.8849,"RA_OF_ASC_NODE":54.6869,"ARG_OF_PERICENTER":82.9466,"MEAN_ANOMALY":277.1805,"EPHEMERIS_TYPE":0,"CLASSIFICATION_TYPE":"U","NORAD_CAT_ID":49085,"ELEMENT_SET_NO":999,"REV_AT_EPOCH":19332,"BSTAR":-0.0011923,"MEAN_MOTION_DOT":-4.16e-6,"MEAN_MOTION_DDOT":0},{"OBJECT_NAME":"ONEWEB-0297","OBJECT_ID":"2021-075M","EPOCH":"2025-07-30T02:04:14.758752","MEAN_MOTION":13.12442615,"ECCENTRICITY":0.0001704,"INCLINATION":87.8853,"RA_OF_ASC_NODE":54.7336,"ARG_OF_PERICENTER":88.396,"MEAN_ANOMALY":271.7363,"EPHEMERIS_TYPE":0,"CLASSIFICATION_TYPE":"U","NORAD_CAT_ID":49086,"ELEMENT_SET_NO":999,"REV_AT_EPOCH":19392,"BSTAR":0.00086112,"MEAN_MOTION_DOT":3.23e-6,"MEAN_MOTION_DDOT":0},{"OBJECT_NAME":"ONEWEB-0298","OBJECT_ID":"2021-075N","EPOCH":"2025-07-29T20:14:00.566304","MEAN_MOTION":13.17649555,"ECCENTRICITY":0.0001746,"INCLINATION":87.9035,"RA_OF_ASC_NODE":70.0367,"ARG_OF_PERICENTER":88.1559,"MEAN_ANOMALY":271.9772,"EPHEMERIS_TYPE":0,"CLASSIFICATION_TYPE":"U","NORAD_CAT_ID":49087,"ELEMENT_SET_NO":999,"REV_AT_EPOCH":19117,"BSTAR":8.6851e-5,"MEAN_MOTION_DOT":4.7e-7,"MEAN_MOTION_DDOT":0},{"OBJECT_NAME":"ONEWEB-0299","OBJECT_ID":"2021-075P","EPOCH":"2025-07-29T20:16:14.286720","MEAN_MOTION":13.17650125,"ECCENTRICITY":0.0001693,"INCLINATION":87.904,"RA_OF_ASC_NODE":69.9885,"ARG_OF_PERICENTER":89.8949,"MEAN_ANOMALY":270.2377,"EPHEMERIS_TYPE":0,"CLASSIFICATION_TYPE":"U","NORAD_CAT_ID":49088,"ELEMENT_SET_NO":999,"REV_AT_EPOCH":19115,"BSTAR":0.00017991,"MEAN_MOTION_DOT":8.3e-7,"MEAN_MOTION_DDOT":0},{"OBJECT_NAME":"ONEWEB-0300","OBJECT_ID":"2021-075Q","EPOCH":"2025-07-30T01:52:33.953664","MEAN_MOTION":13.12443226,"ECCENTRICITY":0.0002047,"INCLINATION":87.885,"RA_OF_ASC_NODE":54.6877,"ARG_OF_PERICENTER":91.3392,"MEAN_ANOMALY":268.7971,"EPHEMERIS_TYPE":0,"CLASSIFICATION_TYPE":"U","NORAD_CAT_ID":49089,"ELEMENT_SET_NO":999,"REV_AT_EPOCH":19394,"BSTAR":0.00024648,"MEAN_MOTION_DOT":1.01e-6,"MEAN_MOTION_DDOT":0},{"OBJECT_NAME":"ONEWEB-0301","OBJECT_ID":"2021-075R","EPOCH":"2025-07-30T01:29:12.270048","MEAN_MOTION":13.12443394,"ECCENTRICITY":0.0002159,"INCLINATION":87.8848,"RA_OF_ASC_NODE":54.6966,"ARG_OF_PERICENTER":92.1842,"MEAN_ANOMALY":267.9534,"EPHEMERIS_TYPE":0,"CLASSIFICATION_TYPE":"U","NORAD_CAT_ID":49090,"ELEMENT_SET_NO":999,"REV_AT_EPOCH":19330,"BSTAR":-0.001048,"MEAN_MOTION_DOT":-3.64e-6,"MEAN_MOTION_DDOT":0},{"OBJECT_NAME":"ONEWEB-0302","OBJECT_ID":"2021-075S","EPOCH":"2025-07-29T19:41:11.167296","MEAN_MOTION":13.12440284,"ECCENTRICITY":0.0001501,"INCLINATION":87.8852,"RA_OF_ASC_NODE":54.7474,"ARG_OF_PERICENTER":76.0709,"MEAN_ANOMALY":284.0586,"EPHEMERIS_TYPE":0,"CLASSIFICATION_TYPE":"U","NORAD_CAT_ID":49091,"ELEMENT_SET_NO":999,"REV_AT_EPOCH":19226,"BSTAR":-0.0010957,"MEAN_MOTION_DOT":-3.81e-6,"MEAN_MOTION_DDOT":0},{"OBJECT_NAME":"ONEWEB-0304","OBJECT_ID":"2021-075T","EPOCH":"2025-07-30T02:57:10.618848","MEAN_MOTION":13.17649597,"ECCENTRICITY":0.0001554,"INCLINATION":87.9038,"RA_OF_ASC_NODE":69.9652,"ARG_OF_PERICENTER":85.5993,"MEAN_ANOMALY":274.5316,"EPHEMERIS_TYPE":0,"CLASSIFICATION_TYPE":"U","NORAD_CAT_ID":49092,"ELEMENT_SET_NO":999,"REV_AT_EPOCH":19214,"BSTAR":0.00033799,"MEAN_MOTION_DOT":1.44e-6,"MEAN_MOTION_DDOT":0},{"OBJECT_NAME":"ONEWEB-0305","OBJECT_ID":"2021-075U","EPOCH":"2025-07-30T02:47:26.659392","MEAN_MOTION":13.17648397,"ECCENTRICITY":0.0001437,"INCLINATION":87.9032,"RA_OF_ASC_NODE":69.9431,"ARG_OF_PERICENTER":93.4931,"MEAN_ANOMALY":266.6365,"EPHEMERIS_TYPE":0,"CLASSIFICATION_TYPE":"U","NORAD_CAT_ID":49093,"ELEMENT_SET_NO":999,"REV_AT_EPOCH":19216,"BSTAR":-0.00044016,"MEAN_MOTION_DOT":-1.58e-6,"MEAN_MOTION_DDOT":0},{"OBJECT_NAME":"ONEWEB-0308","OBJECT_ID":"2021-075V","EPOCH":"2025-07-30T02:50:57.482304","MEAN_MOTION":13.12442381,"ECCENTRICITY":0.0001777,"INCLINATION":87.8849,"RA_OF_ASC_NODE":54.6814,"ARG_OF_PERICENTER":85.49,"MEAN_ANOMALY":274.6431,"EPHEMERIS_TYPE":0,"CLASSIFICATION_TYPE":"U","NORAD_CAT_ID":49094,"ELEMENT_SET_NO":999,"REV_AT_EPOCH":19333,"BSTAR":-0.00055725,"MEAN_MOTION_DOT":-1.88e-6,"MEAN_MOTION_DDOT":0},{"OBJECT_NAME":"ONEWEB-0309","OBJECT_ID":"2021-075W","EPOCH":"2025-07-30T02:52:18.334560","MEAN_MOTION":13.17650713,"ECCENTRICITY":0.000154,"INCLINATION":87.9035,"RA_OF_ASC_NODE":69.9598,"ARG_OF_PERICENTER":68.4846,"MEAN_ANOMALY":291.645,"EPHEMERIS_TYPE":0,"CLASSIFICATION_TYPE":"U","NORAD_CAT_ID":49095,"ELEMENT_SET_NO":999,"REV_AT_EPOCH":19215,"BSTAR":-8.4375e-5,"MEAN_MOTION_DOT":-2.0e-7,"MEAN_MOTION_DDOT":0},{"OBJECT_NAME":"ONEWEB-0310","OBJECT_ID":"2021-075X","EPOCH":"2025-07-30T03:11:58.549920","MEAN_MOTION":13.12442958,"ECCENTRICITY":0.0001688,"INCLINATION":87.8854,"RA_OF_ASC_NODE":54.7239,"ARG_OF_PERICENTER":82.9775,"MEAN_ANOMALY":277.1545,"EPHEMERIS_TYPE":0,"CLASSIFICATION_TYPE":"U","NORAD_CAT_ID":49096,"ELEMENT_SET_NO":999,"REV_AT_EPOCH":19394,"BSTAR":-0.0014293,"MEAN_MOTION_DOT":-5.01e-6,"MEAN_MOTION_DDOT":0}]
